#dP2021  7 15  0  0  0.00000000     289 ORBIT IGS14 BHN ESOC                    
## 2166 345600.00000000   300.00000000 59410 0.0000000000000                    
+  114   G13G28G21G22G07G05G31G17G15G16G29G12G19G02G25G01G30                    
+        G24G27G06G09G03G32G26G08G10G04G18G23G14G11R09R20R19                    
+        R13R01R22R16R08R03R07R02R17R18R21R05R15R12R04R24E11                    
+        E12E19E18E14E26E24E30E08E09E01E02E07E03E04E05E21E25                    
+        E27E31E36E13E15E33C11C12C14C19C20C27C28C22C21C29C30                    
+        C23C24C26C25C32C33C35C34C36C37C46C45C44C43C41C42C06                    
+        C07C08C09C10C13C16C38C39C40J01J02J03  0  0  0  0  0                    
++         4  5  5  5  5  5  4  5  5  4  5  5  5  5  5  5  5                    
++         4  5  4  5  5  5  4  4  6  4  5  5  4  5  7  6  6                    
++         6  5  6  6  5  5  5  4  5  5  5  5  5  5  5  4  5                    
++         5  5  5  5  5  4  5  5  5  4  4  5  4  5  5  5  5                    
++         5  4  5  5  5  5  5  5  5  5  5  4  4  5  6  5  5                    
++         4  4  4  5  4  5  6  5  5  5  5  6  5  5  6  6  5                    
++         5  6  6  5  7  6  8  7  8  7  7  6  0  0  0  0  0                    
%c M  cc GPS ccc cccc cccc cccc cccc ccccc ccccc ccccc ccccc                    
%c cc cc ccc ccc cccc cccc cccc cccc ccccc ccccc ccccc ccccc                    
%f  0.0000000  0.000000000  0.00000000000  0.000000000000000                    
%f  0.0000000  0.000000000  0.00000000000  0.000000000000000                    
%i    0    0    0    0      0      0      0      0         0                    
%i    0    0    0    0      0      0      0      0         0                    
/* CCCCCCCCCCCCCCCCCCCCCCCCCCCCCCCCCCCCCCCCCCCCCCCCCCCCCCCCCCCCCCCCCCCCCCCCCCCCC
/* CCCCCCCCCCCCCCCCCCCCCCCCCCCCCCCCCCCCCCCCCCCCCCCCCCCCCCCCCCCCCCCCCCCCCCCCCCCCC
/* CCCCCCCCCCCCCCCCCCCCCCCCCCCCCCCCCCCCCCCCCCCCCCCCCCCCCCCCCCCCCCCCCCCCCCCCCCCCC
/* PCV:IGS14      OL/AL:EOT11A   NONE     YN ORB:CoN CLK:CoN                    
*  2021  7 15 18 55  0.00000000                                                 
PG13  11601.559335 -22237.515800  -8650.370183    158.117178                    
PG28  13180.162224  -6652.276009 -21540.663612    537.323994                    
PG21   6324.786723  14514.143404 -20705.097262    131.445951                    
PG22   8711.502928  24063.955299  -7307.511770   -562.828824                    
PG07  24835.242890   7179.156902   7501.451928    203.105246                    
PG05  -4372.118829 -23791.805482  10603.757241    -48.010001                    
PG31 -20946.444223   8286.246759  14342.505787   -128.805046                    
PG17  19494.940872  -8695.787044 -15379.803018    474.265988                    
PG15   -402.336920 -22527.954099 -14156.755048   -135.312741                    
PG16  -2885.743234  21208.812865  15177.212793   -357.617147                    
PG29 -12629.661040  -7641.346950  22032.123972   -380.670448                    
PG12 -10023.549389 -24675.648925    -44.712438    -69.062813                    
PG19  20106.537751 -15056.887292  -8687.007069     26.719495                    
PG02  11450.016344 -14066.383226  20078.936940   -619.789002                    
PG25 -16709.449966 -18208.815837   9815.831381    174.042178                    
PG01  14065.846397  13404.541341 -18534.146729    627.304199                    
PG30  26167.568100  -1348.874433  -4997.547652   -451.128670                    
PG24  -9473.398088 -14874.380958 -20215.100246    175.281198                    
PG27 -11430.722297  23260.868817  -5008.669810   -163.356906                    
PG06  21807.777907  -7413.123623  13332.748341     40.585908                    
PG09  14570.691909   5500.881359  21456.811283   -355.576771                    
PG03  12194.297501  23651.258423    696.953631   -221.619832                    
PG32 -19281.931112  11815.352391 -13675.042397     13.894142                    
PG26 -10055.525353  13032.246071  20737.325996    110.945961                    
PG08  -2875.555833  22282.158740 -13932.941339    -28.913972                    
PG10 -16072.368267    103.405865 -21077.452104   -162.663095                    
PG04   5655.403364  16316.830056  20171.755498   -202.410373                    
PG18 -25698.822654  -5268.373601   4402.720834    340.739436                    
PG23 -18242.452817 -11427.669813 -15619.591786     84.179118                    
PG14  16140.172479   -270.359694 -21104.961927     46.620286                    
PG11  12918.257359 -12276.972004  19676.570411     16.342758                    
PR09 -21635.001657 -12642.652402   4577.429114      3.066913                    
PR20 -17774.694932  -1657.540872  18202.624360    -52.537675                    
PR19   1209.220229 -11374.855970  22790.561369   -151.634362                    
PR13  21558.975093  13097.652880  -3815.503969    -57.745195                    
PR01   1496.153726  24319.591631   7581.529231     82.353236                    
PR22 -15337.320270  13723.722492 -15027.589078   -122.826811                    
PR16 -14721.779767 -17210.300435 -11877.515711    -17.949746                    
PR08  -6241.547663  23521.448730  -7557.333800    -59.961267                    
PR03  11001.267482 -10329.003400  20624.961992     39.557365                    
PR07 -10898.724663  10943.936015 -20248.149369    -42.025897                    
PR02   9410.747772   8884.027682  22012.972518    486.174446                    
PR17  23669.538675  -9198.724604  -2157.657706    441.341369                    
PR18  16165.576888 -13804.275753  14142.283513     83.529239                    
PR21 -23592.354254   9703.761307    858.358638   -224.118317                    
PR05  -1714.794825 -23638.416891  -9447.133581     75.392571                    
PR15   2512.880404 -11543.765372 -22581.367686    102.666743                    
PR12  13458.163750  17406.163364  12924.905702    245.562582                    
PR04   6320.301486 -23472.384543   7768.887586     95.917964                    
PR24  18447.363933   1242.496024 -17555.103802     50.586030                    
PE11  23120.901785 -12061.335169  14001.200830   5715.557649                    
PE12  29166.806201   -230.918810  -5095.980324   5109.527945                    
PE19   7491.396106  19530.721882  20952.870099    327.641374                    
PE18  -2064.971209  26612.588667 -17952.895413  -1645.465666                    
PE14   9165.188993 -21507.792955   6920.504105  -1501.351716                    
PE26  -2895.197477  16531.788953 -24386.456606   1575.669474                    
PE24  12340.608006 -11216.758530 -24462.007939  -1009.596404                    
PE30 -21664.414043  -8652.912486  18220.857222   2781.533875                    
PE08 -18637.580356   3132.023285 -22780.727580   5969.844210                    
PE09  17077.122864 -21935.273625  10148.358374   5599.385608                    
PE01  18407.290197  23121.666099  -1659.265085  -1150.770149                    
PE02 -18482.894754 -23056.906982   1805.335030    233.128705                    
PE07 -17294.726653  21736.092484 -10239.445833   -562.043584                    
PE03  -9232.000580 -17649.125224 -21888.527777   -453.004884                    
PE04  18694.846194  -2579.444637  22812.325368   -814.006921                    
PE05   5823.932498 -27867.176345  -8087.529882   -264.956693                    
PE21   5232.397121  24663.916586  15514.314599   -676.414849                    
PE25  -5061.693691 -24596.560961 -15658.595084   -540.098978                    
PE27 -11596.129279  12051.056814  24430.484292    -76.352883                    
PE31  21476.612439   7560.211596 -18904.301275   -483.289532                    
PE36   3877.327756 -16404.119734  24328.451782   -234.860959                    
PE13 -23389.747669  11907.264730 -13686.713411    419.060256                    
PE15 -29160.228284    369.001770   5067.139542    803.325020                    
PE33  17748.722095  11359.083329 -20792.160787   -467.646732                    
PC11  24325.505424  -6321.652092 -12023.785061    459.454506                    
PC12  13975.049149   8545.596926 -22561.092676    810.704162                    
PC14  15968.531411    269.551764  22909.544282    804.062915                    
PC19 -13937.916844  11178.280314 -21417.180599    910.152787                    
PC20 -15433.827985  -9428.288277 -21227.672556   -844.315611                    
PC27  -5248.070074 -15320.256527  22704.553598    564.823006                    
PC28  13526.780982 -20217.728371  13665.794838    -50.296576                    
PC22  -4368.210180  26000.984125  -9193.733566   -948.421231                    
PC21   7713.075527  25525.607607   8293.039500   -935.794780                    
PC29 -23809.600212  14156.259998   3379.036787    419.874638                    
PC30 -20643.711036  -1183.835140  18721.912130    474.116362                    
PC23   4854.610684 -15639.919505 -22582.632194   -969.463818                    
PC24  25471.261889  11272.142906  -1518.844795   -940.817343                    
PC26  15658.033130  18280.555073  14089.460124    878.284165                    
PC25  21153.209815  -4204.391974 -17699.747096   -885.453852                    
PC32  -7871.965587 -25463.042856  -8231.115380   -924.832381                    
PC33  13956.082247 -11116.613339  21456.467154   -943.515228                    
PC35 -13096.371384  20695.920378 -13358.095448   -185.809015                    
PC34  21115.128951    575.705228 -18260.490078   -627.440839                    
PC36 -21493.391596   3428.236447  17494.987193   -733.257100                    
PC37 -14452.434080 -18760.195681 -14749.904299   -864.985745                    
PC46 -25727.679145 -10545.578930   2579.716366    177.498378                    
PC45  -4630.188777  15613.658044  22671.128361    494.261146                    
PC44   5688.415478  15345.585639 -22613.008023    290.984073                    
PC43  24025.876839 -13668.427930  -3920.090689   -822.852223                    
PC41   4559.263766 -25840.385302   9546.776031   -960.530335                    
PC42  15382.811489  10320.390416  20920.248501   -919.986267                    
PC06 -22787.126837  31946.759684  15242.239832    628.628366                    
PC07  -8380.992492  36232.691076  20644.674045    118.067542                    
PC08 -11923.185872  18012.644653 -36115.390864   -904.991626                    
PC09 -10364.062854  30997.189548  26711.570159    371.575091                    
PC10   1116.431487  40984.660341  11082.449958    -18.545073                    
PC13   1877.731581  23846.751960 -34594.184550    337.719092                    
PC16 -21411.794681  32205.829992  16675.143890   -916.598830                    
PC38 -10763.717847  21111.279006 -34869.765049    161.884463                    
PC39 -18779.120532  33604.452843  17044.121470     32.365048                    
PC40  -4049.000884  39393.867030  14729.069871    180.784617                    
PJ01 -22011.963177  30530.154283 -14470.494620   -416.383598                    
PJ02 -25834.926575  21351.223701  30536.531150     -0.807841                    
PJ03 -34483.771200  23482.665336  -1999.243153     -0.194974                    
EOF                                                                             
